FIREFLY-1               
1 62701U 25009CW  26188.73954333  .00000962  00000+0  98526-4 0  9994
2 62701  97.7064 266.4440 0002233 261.7872  98.3095 14.92728590 80380
FIREFLY-2               
1 62704U 25009CZ  26188.71743098  .00001024  00000+0  10456-3 0  9994
2 62704  97.7020 266.1962 0007084  26.7906 333.3678 14.92724868 80380
FIREFLY-3               
1 62710U 25009DF  26188.76289926  .00001368  00000+0  13766-3 0  9999
2 62710  97.7054 266.4969 0004894  90.1973 269.9807 14.92788926 80405
