{"fetched_at":"2026-07-08T07:03:52.883Z","source":"https://celestrak.org/NORAD/elements/gp.php?NAME=FIREFLY&FORMAT=JSON","constellation":"pixxel","records":[{"OBJECT_NAME":"FIREFLY-1","OBJECT_ID":"2025-009CW","EPOCH":"2026-07-07T17:44:56.543712","CLASSIFICATION_TYPE":"U","MEAN_MOTION":14.9272859,"ECCENTRICITY":0.0002233,"INCLINATION":97.7064,"RA_OF_ASC_NODE":266.444,"ARG_OF_PERICENTER":261.7872,"MEAN_ANOMALY":98.3095,"EPHEMERIS_TYPE":0,"NORAD_CAT_ID":62701,"ELEMENT_SET_NO":999,"REV_AT_EPOCH":8038,"BSTAR":0.000098526,"MEAN_MOTION_DOT":0.00000962,"MEAN_MOTION_DDOT":0},{"OBJECT_NAME":"FIREFLY-2","OBJECT_ID":"2025-009CZ","EPOCH":"2026-07-07T17:13:06.036672","CLASSIFICATION_TYPE":"U","MEAN_MOTION":14.92724868,"ECCENTRICITY":0.0007084,"INCLINATION":97.702,"RA_OF_ASC_NODE":266.1962,"ARG_OF_PERICENTER":26.7906,"MEAN_ANOMALY":333.3678,"EPHEMERIS_TYPE":0,"NORAD_CAT_ID":62704,"ELEMENT_SET_NO":999,"REV_AT_EPOCH":8038,"BSTAR":0.00010456,"MEAN_MOTION_DOT":0.00001024,"MEAN_MOTION_DDOT":0},{"OBJECT_NAME":"FIREFLY-3","OBJECT_ID":"2025-009DF","EPOCH":"2026-07-07T18:18:34.496064","CLASSIFICATION_TYPE":"U","MEAN_MOTION":14.92788926,"ECCENTRICITY":0.0004894,"INCLINATION":97.7054,"RA_OF_ASC_NODE":266.4969,"ARG_OF_PERICENTER":90.1973,"MEAN_ANOMALY":269.9807,"EPHEMERIS_TYPE":0,"NORAD_CAT_ID":62710,"ELEMENT_SET_NO":999,"REV_AT_EPOCH":8040,"BSTAR":0.00013766,"MEAN_MOTION_DOT":0.00001368,"MEAN_MOTION_DDOT":0}]}
